WISE                    
1 36119U 09071A   17345.71140284  .00000961  00000-0  37072-4 0  9993
2 36119  97.4346  13.4365 0004051  63.1074 297.0580 15.28743711443379
